[{"OBJECT_NAME":"NOAA 18","OBJECT_ID":"2005-018A","EPOCH":"2026-03-31T20:03:48.842208","MEAN_MOTION":14.13715272,"ECCENTRICITY":0.0014403,"INCLINATION":98.8127,"RA_OF_ASC_NODE":171.63,"ARG_OF_PERICENTER":15.4053,"MEAN_ANOMALY":344.7556,"EPHEMERIS_TYPE":0,"CLASSIFICATION_TYPE":"U","NORAD_CAT_ID":28654,"ELEMENT_SET_NO":999,"REV_AT_EPOCH":7538,"BSTAR":5.7752e-5,"MEAN_MOTION_DOT":6.5e-7,"MEAN_MOTION_DDOT":0},{"OBJECT_NAME":"NOAA 19","OBJECT_ID":"2009-005A","EPOCH":"2026-03-31T19:42:24.152832","MEAN_MOTION":14.13461067,"ECCENTRICITY":0.001282,"INCLINATION":98.9566,"RA_OF_ASC_NODE":161.6251,"ARG_OF_PERICENTER":247.1565,"MEAN_ANOMALY":112.8254,"EPHEMERIS_TYPE":0,"CLASSIFICATION_TYPE":"U","NORAD_CAT_ID":33591,"ELEMENT_SET_NO":999,"REV_AT_EPOCH":88355,"BSTAR":6.2844e-5,"MEAN_MOTION_DOT":7.3e-7,"MEAN_MOTION_DDOT":0},{"OBJECT_NAME":"SUOMI NPP","OBJECT_ID":"2011-061A","EPOCH":"2026-03-31T19:19:45.811776","MEAN_MOTION":14.1949958,"ECCENTRICITY":0.0001828,"INCLINATION":98.7898,"RA_OF_ASC_NODE":32.2352,"ARG_OF_PERICENTER":151.9441,"MEAN_ANOMALY":208.1834,"EPHEMERIS_TYPE":0,"CLASSIFICATION_TYPE":"U","NORAD_CAT_ID":37849,"ELEMENT_SET_NO":999,"REV_AT_EPOCH":74746,"BSTAR":8.2997e-5,"MEAN_MOTION_DOT":1.31e-6,"MEAN_MOTION_DDOT":0},{"OBJECT_NAME":"NOAA 20 (JPSS-1)","OBJECT_ID":"2017-073A","EPOCH":"2026-03-31T19:40:24.499200","MEAN_MOTION":14.195419,"ECCENTRICITY":0.0001957,"INCLINATION":98.7718,"RA_OF_ASC_NODE":30.9903,"ARG_OF_PERICENTER":107.9442,"MEAN_ANOMALY":252.1948,"EPHEMERIS_TYPE":0,"CLASSIFICATION_TYPE":"U","NORAD_CAT_ID":43013,"ELEMENT_SET_NO":999,"REV_AT_EPOCH":43349,"BSTAR":6.6967e-5,"MEAN_MOTION_DOT":9.7e-7,"MEAN_MOTION_DDOT":0}]
