NOAA 18                 
1 28654U 05018A   26090.83598197  .00000065  00000+0  57752-4 0  9996
2 28654  98.8127 171.6300 0014403  15.4053 344.7556 14.13715272 75380
NOAA 19                 
1 33591U 09005A   26090.82111288  .00000073  00000+0  62844-4 0  9990
2 33591  98.9566 161.6251 0012820 247.1565 112.8254 14.13461067883556
SUOMI NPP               
1 37849U 11061A   26090.80539134  .00000131  00000+0  82997-4 0  9993
2 37849  98.7898  32.2352 0001828 151.9441 208.1834 14.19499580747467
NOAA 20 (JPSS-1)        
1 43013U 17073A   26090.81972800  .00000097  00000+0  66967-4 0  9994
2 43013  98.7718  30.9903 0001957 107.9442 252.1948 14.19541900433494
